{
  "type": "FeatureCollection",
  "features": [
    {
      "type": "Feature",
      "properties": {
        "norad_id": 66320,
        "name": "STARLINK-34616",
        "group": "last-30-days",
        "lat": 32.556521328216014,
        "lon": 85.53701013116029,
        "alt_km": 410.324377967042,
        "timestamp": "2025-12-02T21:34:00.040506+00:00",
        "meta_object_name": "STARLINK-34616",
        "meta_object_id": "2025-253B",
        "meta_epoch": "2025-12-02T12:04:03.392256",
        "meta_mean_motion": 15.5059712,
        "meta_eccentricity": 0.000162,
        "meta_inclination": 43.0005,
        "meta_ra_of_asc_node": 44.6062,
        "meta_arg_of_pericenter": 274.0056,
        "meta_mean_anomaly": 86.0619,
        "meta_ephemeris_type": 0,
        "meta_classification_type": "U",
        "meta_norad_cat_id": 66320,
        "meta_element_set_no": 999,
        "meta_rev_at_epoch": 542,
        "meta_bstar": 0.0018492,
        "meta_mean_motion_dot": 0.00109746,
        "meta_mean_motion_ddot": 0,
        "tle_line1": "1 66320U 25253B   25336.50281704  .00109746  00000+0  18492-2 0  9992",
        "tle_line2": "2 66320  43.0005  44.6062 0001620 274.0056  86.0619 15.50597120  5422"
      },
      "geometry": {
        "type": "Point",
        "coordinates": [
          85.53701013116029,
          32.556521328216014
        ]
      }
    },
    {
      "type": "Feature",
      "properties": {
        "norad_id": 66321,
        "name": "STARLINK-34615",
        "group": "last-30-days",
        "lat": 1.245112320396656,
        "lon": 42.864982873166234,
        "alt_km": 375.10608409041834,
        "timestamp": "2025-12-02T21:34:00.040517+00:00",
        "meta_object_name": "STARLINK-34615",
        "meta_object_id": "2025-253C",
        "meta_epoch": "2025-12-01T13:21:43.206912",
        "meta_mean_motion": 15.63263158,
        "meta_eccentricity": 0.00023769,
        "meta_inclination": 42.9996,
        "meta_ra_of_asc_node": 49.5325,
        "meta_arg_of_pericenter": 5.4675,
        "meta_mean_anomaly": 354.6216,
        "meta_ephemeris_type": 0,
        "meta_classification_type": "U",
        "meta_norad_cat_id": 66321,
        "meta_element_set_no": 999,
        "meta_rev_at_epoch": 520,
        "meta_bstar": 0.0016579406,
        "meta_mean_motion_dot": 0.00159038,
        "meta_mean_motion_ddot": 0,
        "tle_line1": "1 66321U 25253C   25335.55675008  .00159038  00000+0  16579-2 0  9994",
        "tle_line2": "2 66321  42.9996  49.5325 0002376   5.4675 354.6216 15.63263158  5206"
      },
      "geometry": {
        "type": "Point",
        "coordinates": [
          42.864982873166234,
          1.245112320396656
        ]
      }
    },
    {
      "type": "Feature",
      "properties": {
        "norad_id": 66322,
        "name": "STARLINK-35292",
        "group": "last-30-days",
        "lat": -20.647148826924543,
        "lon": 18.64225329908395,
        "alt_km": 445.1345843405097,
        "timestamp": "2025-12-02T21:34:00.040529+00:00",
        "meta_object_name": "STARLINK-35292",
        "meta_object_id": "2025-253D",
        "meta_epoch": "2025-12-02T06:00:02.999808",
        "meta_mean_motion": 15.40655905,
        "meta_eccentricity": 0.00016913,
        "meta_inclination": 43.0008,
        "meta_ra_of_asc_node": 46.2316,
        "meta_arg_of_pericenter": 277.9556,
        "meta_mean_anomaly": 49.3405,
        "meta_ephemeris_type": 0,
        "meta_classification_type": "U",
        "meta_norad_cat_id": 66322,
        "meta_element_set_no": 999,
        "meta_rev_at_epoch": 524,
        "meta_bstar": 0.0016460912,
        "meta_mean_motion_dot": 0.00068981,
        "meta_mean_motion_ddot": 0,
        "tle_line1": "1 66322U 25253D   25336.25003472  .00068981  00000+0  16461-2 0  9999",
        "tle_line2": "2 66322  43.0008  46.2316 0001691 277.9556  49.3405 15.40655905  5242"
      },
      "geometry": {
        "type": "Point",
        "coordinates": [
          18.64225329908395,
          -20.647148826924543
        ]
      }
    },
    {
      "type": "Feature",
      "properties": {
        "norad_id": 66323,
        "name": "STARLINK-35309",
        "group": "last-30-days",
        "lat": 39.056090479363036,
        "lon": 102.79675979120127,
        "alt_km": 409.3719474222444,
        "timestamp": "2025-12-02T21:34:00.040539+00:00",
        "meta_object_name": "STARLINK-35309",
        "meta_object_id": "2025-253E",
        "meta_epoch": "2025-12-02T07:21:49.754304",
        "meta_mean_motion": 15.50620272,
        "meta_eccentricity": 0.0001279,
        "meta_inclination": 43.0004,
        "meta_ra_of_asc_node": 45.715,
        "meta_arg_of_pericenter": 253.4797,
        "meta_mean_anomaly": 106.5923,
        "meta_ephemeris_type": 0,
        "meta_classification_type": "U",
        "meta_norad_cat_id": 66323,
        "meta_element_set_no": 999,
        "meta_rev_at_epoch": 531,
        "meta_bstar": 0.00083711,
        "meta_mean_motion_dot": 0.00049149,
        "meta_mean_motion_ddot": 0,
        "tle_line1": "1 66323U 25253E   25336.30682586  .00049149  00000+0  83711-3 0  9993",
        "tle_line2": "2 66323  43.0004  45.7150 0001279 253.4797 106.5923 15.50620272  5316"
      },
      "geometry": {
        "type": "Point",
        "coordinates": [
          102.79675979120127,
          39.056090479363036
        ]
      }
    },
    {
      "type": "Feature",
      "properties": {
        "norad_id": 66324,
        "name": "STARLINK-35506",
        "group": "last-30-days",
        "lat": 36.74402014308745,
        "lon": 95.50983057183582,
        "alt_km": 408.28971970071234,
        "timestamp": "2025-12-02T21:34:00.040553+00:00",
        "meta_object_name": "STARLINK-35506",
        "meta_object_id": "2025-253F",
        "meta_epoch": "2025-12-02T05:50:53.634048",
        "meta_mean_motion": 15.50908788,
        "meta_eccentricity": 0.0001609,
        "meta_inclination": 43.0002,
        "meta_ra_of_asc_node": 46.1022,
        "meta_arg_of_pericenter": 289.6052,
        "meta_mean_anomaly": 70.4635,
        "meta_ephemeris_type": 0,
        "meta_classification_type": "U",
        "meta_norad_cat_id": 66324,
        "meta_element_set_no": 999,
        "meta_rev_at_epoch": 530,
        "meta_bstar": 0.0025528,
        "meta_mean_motion_dot": 0.00154211,
        "meta_mean_motion_ddot": 0,
        "tle_line1": "1 66324U 25253F   25336.24367632  .00154211  00000+0  25528-2 0  9997",
        "tle_line2": "2 66324  43.0002  46.1022 0001609 289.6052  70.4635 15.50908788  5309"
      },
      "geometry": {
        "type": "Point",
        "coordinates": [
          95.50983057183582,
          36.74402014308745
        ]
      }
    },
    {
      "type": "Feature",
      "properties": {
        "norad_id": 66325,
        "name": "STARLINK-35504",
        "group": "last-30-days",
        "lat": 35.40591519326289,
        "lon": 91.98826266078866,
        "alt_km": 411.5393457044702,
        "timestamp": "2025-12-02T21:34:00.040577+00:00",
        "meta_object_name": "STARLINK-35504",
        "meta_object_id": "2025-253G",
        "meta_epoch": "2025-12-02T05:50:57.629184",
        "meta_mean_motion": 15.49695225,
        "meta_eccentricity": 3.34e-05,
        "meta_inclination": 42.9999,
        "meta_ra_of_asc_node": 46.1029,
        "meta_arg_of_pericenter": 172.3889,
        "meta_mean_anomaly": 187.6976,
        "meta_ephemeris_type": 0,
        "meta_classification_type": "U",
        "meta_norad_cat_id": 66325,
        "meta_element_set_no": 999,
        "meta_rev_at_epoch": 530,
        "meta_bstar": 0.002443,
        "meta_mean_motion_dot": 0.00141092,
        "meta_mean_motion_ddot": 0,
        "tle_line1": "1 66325U 25253G   25336.24372256  .00141092  00000+0  24430-2 0  9990",
        "tle_line2": "2 66325  42.9999  46.1029 0000334 172.3889 187.6976 15.49695225  5306"
      },
      "geometry": {
        "type": "Point",
        "coordinates": [
          91.98826266078866,
          35.40591519326289
        ]
      }
    },
    {
      "type": "Feature",
      "properties": {
        "norad_id": 66326,
        "name": "STARLINK-35479",
        "group": "last-30-days",
        "lat": 39.65666864660951,
        "lon": 105.06329590550831,
        "alt_km": 408.96277212548557,
        "timestamp": "2025-12-02T21:34:00.040591+00:00",
        "meta_object_name": "STARLINK-35479",
        "meta_object_id": "2025-253H",
        "meta_epoch": "2025-12-02T11:59:36.576096",
        "meta_mean_motion": 15.50605738,
        "meta_eccentricity": 8.22e-05,
        "meta_inclination": 43.0003,
        "meta_ra_of_asc_node": 44.5798,
        "meta_arg_of_pericenter": 239.7912,
        "meta_mean_anomaly": 120.2866,
        "meta_ephemeris_type": 0,
        "meta_classification_type": "U",
        "meta_norad_cat_id": 66326,
        "meta_element_set_no": 999,
        "meta_rev_at_epoch": 534,
        "meta_bstar": 0.0016599,
        "meta_mean_motion_dot": 0.00098363,
        "meta_mean_motion_ddot": 0,
        "tle_line1": "1 66326U 25253H   25336.49972889  .00098363  00000+0  16599-2 0  9995",
        "tle_line2": "2 66326  43.0003  44.5798 0000822 239.7912 120.2866 15.50605738  5344"
      },
      "geometry": {
        "type": "Point",
        "coordinates": [
          105.06329590550831,
          39.65666864660951
        ]
      }
    }
  ]
}